QIANFAN-1               
1 60379U 24140A   25332.84254481  .00000090  00000+0  12119-3 0  9992
2 60379  88.9745 300.7197 0015526 254.7345 105.2090 13.50975120 65476
QIANFAN-2               
1 60380U 24140B   25332.79751108  .00000103  00000+0  14121-3 0  9996
2 60380  88.9731 300.5655 0011136 222.2878 137.7415 13.50978624 65523
QIANFAN-3               
1 60381U 24140C   25332.80568184  .00000091  00000+0  12209-3 0  9990
2 60381  88.9724 300.6984 0012053 237.1820 122.8171 13.50979214 65433
QIANFAN-4               
1 60382U 24140D   25332.85492654  .00000074  00000+0  96182-4 0  9998
2 60382  88.9748 300.5874 0011317 225.2213 134.8019 13.50979430 65561
QIANFAN-5               
1 60383U 24140E   25332.60815353  .00000088  00000+0  11785-3 0  9997
2 60383  88.9723 300.7445 0013211 250.9245 109.0476 13.50976782 65395
QIANFAN-6               
1 60384U 24140F   25332.77687918  .00000078  00000+0  10245-3 0  9999
2 60384  88.9750 300.4693 0011329 232.3435 127.6689 13.50977403 65619
QIANFAN-7               
1 60385U 24140G   25332.79663308  .00000569  00000+0  22475-3 0  9992
2 60385  88.9766 295.3593 0017367  85.9500 274.3679 14.27620644 68407
QIANFAN-8               
1 60386U 24140H   25332.78511336  .00000081  00000+0  10740-3 0  9996
2 60386  88.9752 300.7057 0014753 235.7127 124.2627 13.50975348 65463
